SAR-LUPE 2              
1 31797U 07030A   26188.14572343  .00030947  00000+0  49785-3 0  9999
2 31797  98.1054 295.1011 0003677 212.2785 147.8241 15.52938302 60039
SAPPHIRE                
1 39088U 13009C   26188.17001892  .00000087  00000+0  45370-4 0  9991
2 39088  98.4270   7.1521 0011074 183.3660 176.7453 14.35246002699448
PRAETORIAN SDA_602      
1 65565U 25203A   26187.90390066  .00000082  00000+0  62797-4 0  9990
2 65565  81.3035 352.5106 0006821 136.8371 223.3321 13.83887528 41427
PRAETORIAN SDA_603      
1 65566U 25203B   26187.93262830  .00000186  00000+0  15691-3 0  9996
2 65566  81.3041 352.4061 0010583 135.0780 225.1235 13.83961004 41436
PRAETORIAN SDA_604      
1 65567U 25203C   26187.89240728  .00000069  00000+0  52636-4 0  9995
2 65567  81.3059 352.8861 0006292 140.5011 219.6604 13.83049642 41408
PRAETORIAN SDA_605      
1 65568U 25203D   26183.87446639  .00000022  00000+0  92536-5 0  9992
2 65568  81.3021 356.2472 0008905 142.0754 218.1031 13.83435094 40865
PRAETORIAN SDA_606      
1 65569U 25203E   26187.91050542  .00000066  00000+0  49539-4 0  9998
2 65569  81.3060 352.7499 0006927 135.2275 224.9441 13.83199637 41415
PRAETORIAN SDA_607      
1 65570U 25203F   26187.90420412  .00000144  00000+0  11951-3 0  9999
2 65570  81.3044 352.3844 0009734 134.7396 225.4555 13.83758206 41433
PRAETORIAN SDA_608      
1 65571U 25203G   26187.95939696  .00000067  00000+0  50032-4 0  9992
2 65571  81.3012 352.5006 0006803 139.5591 220.6072 13.83818918 41422
PRAETORIAN SDA_609      
1 65572U 25203H   26187.95870671  .00000163  00000+0  13563-3 0  9994
2 65572  81.3053 352.4804 0007652 134.1171 226.0617 13.84211244 41437
PRAETORIAN SDA_610      
1 65573U 25203J   26187.93983512  .00000043  00000+0  28508-4 0  9995
2 65573  81.3013 352.4784 0007569 138.9846 221.1881 13.83769232 41421
PRAETORIAN SDA_611      
1 65574U 25203K   26187.94717882  .00000072  00000+0  54947-4 0  9990
2 65574  81.3023 352.6511 0006363 142.8473 217.3124 13.83311317 41417
PRAETORIAN SDA_612      
1 65575U 25203L   26187.91213524  .00000171  00000+0  14089-3 0  9994
2 65575  81.3034 352.2216 0010082 135.1661 225.0313 13.85040267 41449
PRAETORIAN SDA_613      
1 65576U 25203M   26187.88933213  .00000075  00000+0  58301-4 0  9994
2 65576  81.3005 352.7170 0006531 134.0469 226.1226 13.82767195 41404
PRAETORIAN SDA_614      
1 65577U 25203N   26187.90503738  .00000000  00000+0 -10468-4 0  9994
2 65577  81.3010 352.3107 0007966 133.0912 227.0912 13.84778018 41446
PRAETORIAN SDA_615      
1 65578U 25203P   26187.95904973  .00000196  00000+0  16441-3 0  9997
2 65578  81.3027 352.2369 0009903 133.7702 226.4276 13.84438348 41446
PRAETORIAN SDA_616      
1 65579U 25203Q   26187.94698213  .00000172  00000+0  14623-3 0  9998
2 65579  81.3068 352.8098 0006206 141.3083 218.8518 13.83270524 41417
PRAETORIAN SDA_617      
1 65580U 25203R   26187.89793507  .00000055  00000+0  39283-4 0  9996
2 65580  81.3042 352.6844 0008246 133.3059 226.8786 13.83151490 41414
PRAETORIAN SDA_618      
1 65581U 25203S   26187.92512932  .00000184  00000+0  15405-3 0  9994
2 65581  81.3026 352.1977 0010604 137.2456 222.9528 13.84226007 41446
PRAETORIAN SDA_619      
1 65582U 25203T   26187.89773025  .00000182  00000+0  15346-3 0  9995
2 65582  81.3057 352.5447 0009084 134.6911 225.4987 13.83805775 42053
PRAETORIAN SDA_620      
1 65583U 25203U   26187.92935903  .00000142  00000+0  11892-3 0  9993
2 65583  81.3035 352.5408 0008521 131.6653 228.5234 13.83304345 41428
PRAETORIAN SDA_621      
1 65584U 25203V   26187.89955584  .00000086  00000+0  66980-4 0  9993
2 65584  81.3026 352.4766 0008299 128.5822 231.6079 13.83803532 41424
PRAETORIAN SDA_601      
1 65585U 25203W   26187.95154647 -.00000042  00000+0 -49673-4 0  9996
2 65585  81.3050 352.7481 0006254 144.3593 215.7981 13.83170758 41410
VICTUS HAZE PUMA        
1 69646U 26142A   26188.15240225  .00005669  00000+0  25812-3 0  9998
2 69646  97.4474  85.5489 0025226 295.8893  63.9743 15.20808823  2706
