OBJECT_NAME,OBJECT_ID,EPOCH,MEAN_MOTION,ECCENTRICITY,INCLINATION,RA_OF_ASC_NODE,ARG_OF_PERICENTER,MEAN_ANOMALY,EPHEMERIS_TYPE,CLASSIFICATION_TYPE,NORAD_CAT_ID,ELEMENT_SET_NO,REV_AT_EPOCH,BSTAR,MEAN_MOTION_DOT,MEAN_MOTION_DDOT
SAR-LUPE 2,2007-030A,2026-07-07T03:29:50.504352,15.52938302,.0003677,98.1054,295.1011,212.2785,147.8241,0,U,31797,999,6003,.49785E-3,.30947E-3,0
SAPPHIRE,2013-009C,2026-07-07T04:04:49.634688,14.35246002,.0011074,98.4270,7.1521,183.3660,176.7453,0,U,39088,999,69944,.4537E-4,.87E-6,0
PRAETORIAN SDA_602,2025-203A,2026-07-06T21:41:37.017024,13.83887528,.0006821,81.3035,352.5106,136.8371,223.3321,0,U,65565,999,4142,.62797E-4,.82E-6,0
PRAETORIAN SDA_603,2025-203B,2026-07-06T22:22:59.085120,13.83961004,.0010583,81.3041,352.4061,135.0780,225.1235,0,U,65566,999,4143,.15691E-3,.186E-5,0
PRAETORIAN SDA_604,2025-203C,2026-07-06T21:25:03.988992,13.83049642,.0006292,81.3059,352.8861,140.5011,219.6604,0,U,65567,999,4140,.52636E-4,.69E-6,0
PRAETORIAN SDA_605,2025-203D,2026-07-02T20:59:13.896096,13.83435094,.0008905,81.3021,356.2472,142.0754,218.1031,0,U,65568,999,4086,.92536E-5,.22E-6,0
PRAETORIAN SDA_606,2025-203E,2026-07-06T21:51:07.668288,13.83199637,.0006927,81.3060,352.7499,135.2275,224.9441,0,U,65569,999,4141,.49539E-4,.66E-6,0
PRAETORIAN SDA_607,2025-203F,2026-07-06T21:42:03.235968,13.83758206,.0009734,81.3044,352.3844,134.7396,225.4555,0,U,65570,999,4143,.11951E-3,.144E-5,0
PRAETORIAN SDA_608,2025-203G,2026-07-06T23:01:31.897344,13.83818918,.0006803,81.3012,352.5006,139.5591,220.6072,0,U,65571,999,4142,.50032E-4,.67E-6,0
PRAETORIAN SDA_609,2025-203H,2026-07-06T23:00:32.259744,13.84211244,.0007652,81.3053,352.4804,134.1171,226.0617,0,U,65572,999,4143,.13563E-3,.163E-5,0
PRAETORIAN SDA_610,2025-203J,2026-07-06T22:33:21.754368,13.83769232,.0007569,81.3013,352.4784,138.9846,221.1881,0,U,65573,999,4142,.28508E-4,.43E-6,0
PRAETORIAN SDA_611,2025-203K,2026-07-06T22:43:56.250048,13.83311317,.0006363,81.3023,352.6511,142.8473,217.3124,0,U,65574,999,4141,.54947E-4,.72E-6,0
PRAETORIAN SDA_612,2025-203L,2026-07-06T21:53:28.484736,13.85040267,.0010082,81.3034,352.2216,135.1661,225.0313,0,U,65575,999,4144,.14089E-3,.171E-5,0
PRAETORIAN SDA_613,2025-203M,2026-07-06T21:20:38.296032,13.82767195,.0006531,81.3005,352.7170,134.0469,226.1226,0,U,65576,999,4140,.58301E-4,.75E-6,0
PRAETORIAN SDA_614,2025-203N,2026-07-06T21:43:15.229632,13.84778018,.0007966,81.3010,352.3107,133.0912,227.0912,0,U,65577,999,4144,-.10468E-4,0,0
PRAETORIAN SDA_615,2025-203P,2026-07-06T23:01:01.896672,13.84438348,.0009903,81.3027,352.2369,133.7702,226.4276,0,U,65578,999,4144,.16441E-3,.196E-5,0
PRAETORIAN SDA_616,2025-203Q,2026-07-06T22:43:39.256032,13.83270524,.0006206,81.3068,352.8098,141.3083,218.8518,0,U,65579,999,4141,.14623E-3,.172E-5,0
PRAETORIAN SDA_617,2025-203R,2026-07-06T21:33:01.590048,13.83151490,.0008246,81.3042,352.6844,133.3059,226.8786,0,U,65580,999,4141,.39283E-4,.55E-6,0
PRAETORIAN SDA_618,2025-203S,2026-07-06T22:12:11.173248,13.84226007,.0010604,81.3026,352.1977,137.2456,222.9528,0,U,65581,999,4144,.15405E-3,.184E-5,0
PRAETORIAN SDA_619,2025-203T,2026-07-06T21:32:43.893600,13.83805775,.0009084,81.3057,352.5447,134.6911,225.4987,0,U,65582,999,4205,.15346E-3,.182E-5,0
PRAETORIAN SDA_620,2025-203U,2026-07-06T22:18:16.620192,13.83304345,.0008521,81.3035,352.5408,131.6653,228.5234,0,U,65583,999,4142,.11892E-3,.142E-5,0
PRAETORIAN SDA_621,2025-203V,2026-07-06T21:35:21.624576,13.83803532,.0008299,81.3026,352.4766,128.5822,231.6079,0,U,65584,999,4142,.6698E-4,.86E-6,0
PRAETORIAN SDA_601,2025-203W,2026-07-06T22:50:13.615008,13.83170758,.0006254,81.3050,352.7481,144.3593,215.7981,0,U,65585,999,4141,-.49673E-4,-.42E-6,0
VICTUS HAZE PUMA,2026-142A,2026-07-07T03:39:27.554400,15.20808823,.0025226,97.4474,85.5489,295.8893,63.9743,0,U,69646,999,270,.25812E-3,.5669E-4,0
